satname,norad_id,inclination_deg,eccentricity,mean_motion_rev_per_day,perigee_km,apogee_km,l1,l2
STARLINK-1133,45064,53.0542,0.0001415,15.06386584,546.2727337119823,548.2326189903897,1 45064U 20006W   25282.82472207 -.00001944  00000+0 -11169-3 0  9998,2 45064  53.0542 223.8747 0001415  76.4048 283.7099 15.06386584314005
STARLINK-1167,45071,53.0531,0.0001398,15.06390338,546.2730028667056,548.2093386032429,1 45071U 20006AD  25282.25339593 -.00000710  00000+0 -28750-4 0  9998,2 45071  53.0531 226.4419 0001398  95.3834 264.7314 15.06390338313919
STARLINK-1168,45072,53.0545,0.0001456,15.0639373,546.2224411038969,548.2391081998758,1 45072U 20006AE  25282.25708384  .00003049  00000+0  22353-3 0  9995,2 45072  53.0545 226.4251 0001456  96.8940 263.2214 15.06393730313910
STARLINK-1172,45074,53.0559,0.0001627,15.06397315,546.0930315395308,548.346542638048,1 45074U 20006AG  25282.86526995  .00004674  00000+0  33251-3 0  9994,2 45074  53.0559 223.6976 0001627  87.3215 272.7961 15.06397315314008
STARLINK-1153,45080,53.0555,0.0001502,15.06405925,546.1532141002654,548.2335833520419,1 45080U 20006AN  25282.84314376 -.00000402  00000+0 -80998-5 0  9996,2 45080  53.0555 223.7958 0001502 112.1566 247.9582 15.06405925314000
STARLINK-1151,45081,53.054,0.0001197,15.06402505,546.3749171813097,548.0328437880971,1 45081U 20006AP  25282.82840132  .00001377  00000+0  11131-3 0  9990,2 45081  53.0540 223.9362 0001197  90.1186 269.9940 15.06402505314002
STARLINK-1190,45083,53.0478,0.0007379,15.79787147,326.0925053893843,335.99391354251475,1 45083U 20006AR  25282.76482221  .00171667  00000+0  89827-3 0  9993,2 45083  53.0478 187.1205 0007379 109.1107 251.0713 15.79787147314517
STARLINK-1173,45084,53.0391,0.0002248,15.94999788,286.81635765303326,289.8135944614696,1 45084U 20006AS  25282.83620051  .00327132  53206-4  82960-3 0  9999,2 45084  53.0391 149.0227 0002248  77.8393 282.2885 15.94999788315050
STARLINK-1185,45087,53.0549,0.0001322,15.06401944,546.2900695729695,548.1211301563735,1 45087U 20006AV  25282.80444829  .00005474  00000+0  38608-3 0  9997,2 45087  53.0549 203.9675 0001322  91.3240 268.7900 15.06401944314285
STARLINK-1183,45088,53.0542,0.0001421,15.06387041,546.2671780175951,548.2353733655464,1 45088U 20006AW  25282.49482919 -.00001131  00000+0 -57088-4 0  9997,2 45088  53.0542 205.3589 0001421  92.7884 267.3267 15.06387041314235
STARLINK-1176,45090,53.0445,5.81e-05,15.915564,297.53903438203815,298.3147930088089,1 45090U 20006AY  25282.84105834  .00284826  41435-4  86762-3 0  9991,2 45090  53.0445 147.1128 0000581   6.1962 353.9071 15.91556400315084
STARLINK-1142,45093,53.0354,0.000454,15.54902305,399.35825111817303,405.5150119756172,1 45093U 20006BB  25282.83916228  .00088966  00000+0  13002-2 0  9991,2 45093  53.0354 145.0511 0004540 153.9806 206.1433 15.54902305315119
STARLINK-1147,45095,53.0327,0.0002315,16.11228508,241.94240910380267,245.00821560442273,1 45095U 20006BD  25282.84718506  .00796496  36842-3  76284-3 0  9996,2 45095  53.0327 141.9145 0002315 235.2860 124.7956 16.11228508315150
STARLINK-1152,45096,53.0475,0.0008858,15.22492653,492.2336754931157,504.41601529841955,1 45096U 20006BE  25282.74038507  .00004405  00000+0  20170-3 0  9990,2 45096  53.0475 189.0186 0008858 100.4062 259.7933 15.22492653314482
STARLINK-1184,45098,53.0543,0.0001306,15.06383356,546.358112686964,548.1670270546147,1 45098U 20006BG  25282.50957079 -.00002517  00000+0 -15023-3 0  9995,2 45098  53.0543 205.2902 0001306  89.5757 270.5381 15.06383356314238
STARLINK-1193,45100,53.0533,0.0001338,15.06415717,546.2367828238403,548.0899932076736,1 45100U 20006BJ  25282.50587244  .00006055  00000+0  42487-3 0  9995,2 45100  53.0533 205.3087 0001338  94.9364 265.1778 15.06415717314232
STARLINK-1143,45179,53.0542,0.0005665,15.37057124,450.9462185227221,458.6879555033074,1 45179U 20012B   25282.56571235  .00062245  00000+0  16876-2 0  9992,2 45179  53.0542 333.7539 0005665 313.8376  46.2158 15.37057124312505
STARLINK-1202,45183,53.056,0.0001472,15.06420561,546.1291401195567,548.1679441831666,1 45183U 20012F   25282.43582677  .00004526  00000+0  32236-3 0  9992,2 45183  53.0560   5.6252 0001472  87.1391 272.9766 15.06420561312044
STARLINK-1216,45185,53.0551,0.000169,15.06427432,545.9571143872408,548.2978537828621,1 45185U 20012H   25282.49480650  .00007738  00000+0  53738-3 0  9996,2 45185  53.0551   5.3572 0001690  87.4407 272.6776 15.06427432311996
STARLINK-1225,45187,53.0557,0.0001598,15.06423947,546.0315058332062,548.244823775879,1 45187U 20012K   25282.64592353  .00007337  00000+0  51063-3 0  9993,2 45187  53.0557   4.6809 0001598  98.5851 261.5319 15.06423947312068
STARLINK-1230,45189,53.0562,0.0001182,15.06434128,546.2883986719435,547.9255263446803,1 45189U 20012M   25282.64959995  .00003278  00000+0  23862-3 0  9990,2 45189  53.0562   4.6661 0001182  89.5315 270.5810 15.06434128309296
STARLINK-1234,45190,53.0547,0.0002436,15.0659333,544.9322221119764,548.305963280337,1 45190U 20012N   25282.53528183  .00056857  00000+0  37854-2 0  9997,2 45190  53.0547 325.1752 0002436 105.5180 254.6078 15.06593330312514
STARLINK-1269,45197,53.0557,0.0001781,15.06426802,545.8960249378952,548.3628048348783,1 45197U 20012V   25282.59432166  .00010289  00000+0  70810-3 0  9994,2 45197  53.0557   4.9165 0001781  94.6808 265.4384 15.06426802312035
STARLINK-1154,45198,53.0542,0.0001403,15.06421305,546.1746447096748,548.1178791929788,1 45198U 20012W   25282.58511860  .00003072  00000+0  22489-3 0  9994,2 45198  53.0542 344.9555 0001403  95.8845 264.2304 15.06421305312284
STARLINK-1199,45201,53.0554,0.000173,15.06427082,545.9304858109745,548.326627693611,1 45201U 20012Z   25282.46348111  .00009628  00000+0  66386-3 0  9990,2 45201  53.0554 345.5021 0001730  89.3833 270.7354 15.06427082312325
STARLINK-1209,45206,53.0541,0.0001549,15.06443325,546.0060603118809,548.1514921593589,1 45206U 20012AE  25282.53902808  .00011273  00000+0  77358-3 0  9992,2 45206  53.0541 325.1644 0001549  86.9651 273.1515 15.06443325311660
STARLINK-1210,45207,53.0268,0.0013265,15.51105151,404.4890551858198,422.50726326324275,1 45207U 20012AF  25282.31045973  .00103996  00000+0  17333-2 0  9990,2 45207  53.0268 293.5273 0013265 335.0209  25.0155 15.51105151313048
STARLINK-1231,45212,53.0527,0.0003219,15.10474418,532.5268732725863,536.9773912959517,1 45212U 20012AL  25282.55140318  .00021703  00000+0  13171-2 0  9992,2 45212  53.0527 344.2087 0003219 306.6062  53.4632 15.10474418312301
STARLINK-1271,45217,53.0574,0.000164,15.06399966,546.0759049627904,548.3474193239745,1 45217U 20012AR  25282.58143756 -.00000423  00000+0 -94928-5 0  9999,2 45217  53.0574 344.9697 0001640  90.5284 269.5893 15.06399966312345
STARLINK-1191,45222,53.0548,0.0001422,15.0640345,546.216201143995,548.185767266702,1 45222U 20012AW  25282.39162469  .00007337  00000+0  51089-3 0  9994,2 45222  53.0548 325.8219 0001422  83.8697 276.2453 15.06403450312599
STARLINK-1212,45223,53.0553,0.0001574,15.06413529,546.0800504755698,548.2601371487017,1 45223U 20012AX  25282.41012238  .00009422  00000+0  65033-3 0  9997,2 45223  53.0553 326.3951 0001574  90.4553 269.6616 15.06413529312593
STARLINK-1215,45225,53.0569,0.0001657,15.06398096,546.0698622072068,548.3649246531895,1 45225U 20012AZ  25282.49850677 -.00001374  00000+0 -73355-4 0  9991,2 45225  53.0569 325.3428 0001657  98.1794 261.9383 15.06398096312568
STARLINK-1217,45226,53.038,0.0001527,16.04295593,261.5242995136341,263.55236175961,1 45226U 20012BA  25282.44158745  .00584964  17274-3  87009-3 0  9998,2 45226  53.0380 264.8557 0001527 100.3547 259.7656 16.04295593313362
STARLINK-1221,45227,53.0681,0.0001779,15.3585163,457.1758700561786,459.6083071058947,1 45227U 20012BB  25282.26615841  .00015045  00000+0  43503-3 0  9999,2 45227  53.0681 263.8604 0001779 256.9684 103.1119 15.35851630313390
STARLINK-1222,45228,53.0544,0.0001374,15.06422119,546.192233641078,548.0953007959097,1 45228U 20012BC  25282.39897595  .00006140  00000+0  43047-3 0  9991,2 45228  53.0544 325.7888 0001374  84.3851 275.7294 15.06422119312484
STARLINK-1226,45229,53.0564,0.0001651,15.06403154,546.0585179484333,548.3452648503735,1 45229U 20012BD  25282.49482271  .00003168  00000+0  23144-3 0  9997,2 45229  53.0564 325.3607 0001651  90.5809 269.5370 15.06403154312509
STARLINK-1227,45230,53.0551,0.0001422,15.06410571,546.194379577355,548.1639394931262,1 45230U 20012BE  25282.82285532  .00001005  00000+0  86357-4 0  9991,2 45230  53.0551 323.8847 0001422  79.9530 280.1619 15.06410571312678
STARLINK-1246,45235,53.0553,0.0001234,15.06421436,546.2912805597052,548.0004403696694,1 45235U 20012BK  25282.63855178  .00003258  00000+0  23739-3 0  9990,2 45235  53.0553   4.7113 0001234  83.7899 276.3230 15.06421436312092
STARLINK-1270,45237,53.0548,0.0001416,15.06408889,546.2036890693498,548.1649400656352,1 45237U 20012BM  25282.44321720  .00002335  00000+0  17552-3 0  9993,2 45237  53.0548 325.5915 0001416  80.9326 279.1823 15.06408889312601
STARLINK-1279,45360,53.0518,0.0002371,15.06367935,545.6678108439091,548.951857732729,1 45360U 20019A   25282.86617856  .00001637  00000+0  12892-3 0  9997,2 45360  53.0518  93.6881 0002371  87.4731 272.6529 15.06367935307402
STARLINK-1301,45361,53.0515,0.0001315,15.06427866,546.2154818734998,548.0368260829946,1 45361U 20019B   25281.92534894  .00014943  00000+0  10192-2 0  9998,2 45361  53.0515 107.9153 0001315  86.6071 273.5068 15.06427866307134
STARLINK-1306,45362,53.0526,0.0008026,15.61660452,377.4339859036336,388.28673886973684,1 45362U 20019C   25282.50012361  .00179941  00000+0  20090-2 0  9992,2 45362  53.0526 101.9479 0008026 165.7263 194.3978 15.61660452307265
STARLINK-1262,45366,53.0524,9.8e-05,15.06390098,546.5632191755503,547.9205934411866,1 45366U 20019G   25282.55378625 -.00001530  00000+0 -83855-4 0  9999,2 45366  53.0524 125.0907 0000980  82.5922 277.5178 15.06390098306955
